<?xml version="1.0" encoding="UTF-8" standalone="yes"?>
<!DOCTYPE earthquake SYSTEM "stationlist.dtd">
<stationlist created="" xmlns="ch.ethz.sed.shakemap.usgs.xml">
  <station code="AKHA" name="AKHA" netid="GO" source="GNSMC" insttype="Fortis" commtype="DIG" lat="41.4283" lon="43.512">
    <comp name="10.HNZ">
      <acc value="0.0122169782" flag="0"/>
      <vel value="0.0023194937" flag="0"/>
      <psa03 value="0.0083060317" flag="0"/>
      <psa10 value="0.0005826330" flag="0"/>
      <psa30 value="0.0000450589" flag="0"/>
    </comp>
    <comp name="10.HNN">
      <acc value="0.0118506503" flag="0"/>
      <vel value="0.0020750851" flag="0"/>
      <psa03 value="0.0105611414" flag="0"/>
      <psa10 value="0.0005944697" flag="0"/>
      <psa30 value="0.0000697727" flag="0"/>
    </comp>
    <comp name="10.HNE">
      <acc value="0.0150387866" flag="0"/>
      <vel value="0.0033429384" flag="0"/>
      <psa03 value="0.0126436701" flag="0"/>
      <psa10 value="0.0009096797" flag="0"/>
      <psa30 value="0.0000929728" flag="0"/>
    </comp>
  </station>
  <station code="ALIA" name="ALIA" netid="GO" source="GNSMC" insttype="CMG-5TC" commtype="DIG" lat="42.1047" lon="43.649">
    <comp name="10.HNZ">
      <acc value="0.0128601931" flag="0"/>
      <vel value="0.0018753149" flag="0"/>
      <psa03 value="0.0021109671" flag="0"/>
      <psa10 value="0.0001741230" flag="0"/>
      <psa30 value="0.0000847110" flag="0"/>
    </comp>
    <comp name="10.HNN">
      <acc value="0.0172333707" flag="0"/>
      <vel value="0.0030591883" flag="0"/>
      <psa03 value="0.0086215302" flag="0"/>
      <psa10 value="0.0003553581" flag="0"/>
      <psa30 value="0.0000388340" flag="0"/>
    </comp>
    <comp name="10.HNE">
      <acc value="0.0204788202" flag="0"/>
      <vel value="0.0032011151" flag="0"/>
      <psa03 value="0.0122800443" flag="0"/>
      <psa10 value="0.0004588851" flag="0"/>
      <psa30 value="0.0000601899" flag="0"/>
    </comp>
  </station>
  <station code="BTNK" name="BTNK" netid="GO" source="GNSMC" insttype="CMG-5T" commtype="DIG" lat="41.6832" lon="44.7988">
    <comp name="10.HNN">
      <acc value="2.9274662497" flag="0"/>
      <vel value="0.3681550261" flag="0"/>
      <psa03 value="0.4913874062" flag="0"/>
      <psa10 value="0.0294669048" flag="0"/>
      <psa30 value="0.0030959632" flag="0"/>
    </comp>
    <comp name="10.HNZ">
      <acc value="1.6685507413" flag="0"/>
      <vel value="0.1349585830" flag="0"/>
      <psa03 value="0.0984273707" flag="0"/>
      <psa10 value="0.0064282355" flag="0"/>
      <psa30 value="0.0007489125" flag="0"/>
    </comp>
    <comp name="10.HNE">
      <acc value="2.2745152813" flag="0"/>
      <vel value="0.3369621166" flag="0"/>
      <psa03 value="0.4238264109" flag="0"/>
      <psa10 value="0.0258686332" flag="0"/>
      <psa30 value="0.0029424191" flag="0"/>
    </comp>
  </station>
  <station code="DALI" name="DALI" netid="GO" source="GNSMC" insttype="" commtype="DIG" lat="41.2393" lon="45.8579">
    <comp name="20.HNN">
      <acc value="0.0024566108" flag="0"/>
      <vel value="0.0005947819" flag="0"/>
      <psa03 value="0.0037736880" flag="0"/>
      <psa10 value="0.0004026547" flag="0"/>
      <psa30 value="0.0000588281" flag="0"/>
    </comp>
    <comp name="20.HNZ">
      <acc value="0.0034139873" flag="0"/>
      <vel value="0.0006423023" flag="0"/>
      <psa03 value="0.0016989661" flag="0"/>
      <psa10 value="0.0001331364" flag="0"/>
      <psa30 value="0.0000449002" flag="0"/>
    </comp>
    <comp name="20.HNE">
      <acc value="0.0029625232" flag="0"/>
      <vel value="0.0004940815" flag="0"/>
      <psa03 value="0.0038221636" flag="0"/>
      <psa10 value="0.0005033364" flag="0"/>
      <psa30 value="0.0000576780" flag="0"/>
    </comp>
  </station>
  <station code="DDFN" name="DDFN" netid="GO" source="GNSMC" insttype="Fortis" commtype="DIG" lat="41.4733" lon="46.1444">
    <comp name="10.HNZ">
      <acc value="0.0013002756" flag="0"/>
      <vel value="0.0003102796" flag="0"/>
      <psa03 value="0.0012248307" flag="0"/>
      <psa10 value="0.0002571695" flag="0"/>
      <psa30 value="0.0001220571" flag="0"/>
    </comp>
    <comp name="10.HNN">
      <acc value="0.0006141941" flag="0"/>
      <vel value="0.0004254253" flag="0"/>
      <psa03 value="0.0013122762" flag="0"/>
      <psa10 value="0.0003620813" flag="0"/>
      <psa30 value="0.0001181689" flag="0"/>
    </comp>
    <comp name="10.HNE">
      <acc value="0.0005500082" flag="0"/>
      <vel value="0.0003893439" flag="0"/>
      <psa03 value="0.0015634693" flag="0"/>
      <psa10 value="0.0002854457" flag="0"/>
      <psa30 value="0.0001115023" flag="0"/>
    </comp>
  </station>
  <station code="DGRG" name="DGRG" netid="GO" source="GNSMC" insttype="Fortis" commtype="DIG" lat="41.4507" lon="45.3728">
    <comp name="10.HNN">
      <acc value="0.0035816919" flag="0"/>
      <vel value="0.0012591051" flag="0"/>
      <psa03 value="0.0057350654" flag="0"/>
      <psa10 value="0.0007721440" flag="0"/>
      <psa30 value="0.0001894189" flag="0"/>
    </comp>
    <comp name="10.HNZ">
      <acc value="0.0036985619" flag="0"/>
      <vel value="0.0009732422" flag="0"/>
      <psa03 value="0.0062288369" flag="0"/>
      <psa10 value="0.0005111559" flag="0"/>
      <psa30 value="0.0000624860" flag="0"/>
    </comp>
    <comp name="10.HNE">
      <acc value="0.0045960466" flag="0"/>
      <vel value="0.0015036993" flag="0"/>
      <psa03 value="0.0074926904" flag="0"/>
      <psa10 value="0.0011339979" flag="0"/>
      <psa30 value="0.0000818462" flag="0"/>
    </comp>
  </station>
  <station code="DSHG" name="DSHG" netid="GO" source="GNSMC" insttype="" commtype="DIG" lat="42.0001" lon="44.7181">
    <comp name="20.HNZ">
      <acc value="0.0076906629" flag="0"/>
      <vel value="0.0011232424" flag="0"/>
      <psa03 value="0.0052943900" flag="0"/>
      <psa10 value="0.0005950555" flag="0"/>
      <psa30 value="0.0000650875" flag="0"/>
    </comp>
    <comp name="20.HNN">
      <acc value="0.0113967369" flag="0"/>
      <vel value="0.0029280938" flag="0"/>
      <psa03 value="0.0173312457" flag="0"/>
      <psa10 value="0.0015315877" flag="0"/>
      <psa30 value="0.0000996999" flag="0"/>
    </comp>
    <comp name="20.HNE">
      <acc value="0.0054946401" flag="0"/>
      <vel value="0.0013771684" flag="0"/>
      <psa03 value="0.0089758393" flag="0"/>
      <psa10 value="0.0006239996" flag="0"/>
      <psa30 value="0.0000461190" flag="0"/>
    </comp>
  </station>
  <station code="EMLK" name="EMLK" netid="GO" source="GNSMC" insttype="" commtype="DIG" lat="41.2128" lon="43.9515">
    <comp name="20.HNN">
      <acc value="0.0164267077" flag="0"/>
      <vel value="0.0046951832" flag="0"/>
      <psa03 value="0.0115079226" flag="0"/>
      <psa10 value="0.0012100403" flag="0"/>
      <psa30 value="0.0001017259" flag="0"/>
    </comp>
    <comp name="20.HNE">
      <acc value="0.0185919607" flag="0"/>
      <vel value="0.0042685631" flag="0"/>
      <psa03 value="0.0158171137" flag="0"/>
      <psa10 value="0.0016912935" flag="0"/>
      <psa30 value="0.0001175096" flag="0"/>
    </comp>
    <comp name="20.HNZ">
      <acc value="0.0128509184" flag="0"/>
      <vel value="0.0029269075" flag="0"/>
      <psa03 value="0.0074456157" flag="0"/>
      <psa10 value="0.0006869400" flag="0"/>
      <psa30 value="0.0000589106" flag="0"/>
    </comp>
  </station>
  <station code="GARI" name="GARI" netid="GO" source="GNSMC" insttype="" commtype="DIG" lat="42.604" lon="43.4687">
    <comp name="10.HNZ">
      <acc value="0.0022606754" flag="0"/>
      <vel value="0.0007313721" flag="0"/>
      <psa03 value="0.0031205369" flag="0"/>
      <psa10 value="0.0004303881" flag="0"/>
      <psa30 value="0.0000480988" flag="0"/>
    </comp>
    <comp name="10.HNN">
      <acc value="0.0031905099" flag="0"/>
      <vel value="0.0014630143" flag="0"/>
      <psa03 value="0.0064530625" flag="0"/>
      <psa10 value="0.0003729339" flag="0"/>
      <psa30 value="0.0000461831" flag="0"/>
    </comp>
    <comp name="10.HNE">
      <acc value="0.0034669292" flag="0"/>
      <vel value="0.0011660900" flag="0"/>
      <psa03 value="0.0073799348" flag="0"/>
      <psa10 value="0.0006481171" flag="0"/>
      <psa30 value="0.0000485841" flag="0"/>
    </comp>
  </station>
  <station code="KHAR" name="KHAR" netid="GO" source="GNSMC" insttype="" commtype="DIG" lat="42.0163" lon="43.1412">
    <comp name="20.HNZ">
      <acc value="0.0010532686" flag="0"/>
      <vel value="0.0002505092" flag="0"/>
      <psa03 value="0.0009842168" flag="0"/>
      <psa10 value="0.0002250810" flag="0"/>
      <psa30 value="0.0000230029" flag="0"/>
    </comp>
    <comp name="20.HNE">
      <acc value="0.0012760339" flag="0"/>
      <vel value="0.0002883077" flag="0"/>
      <psa03 value="0.0019703557" flag="0"/>
      <psa10 value="0.0002620946" flag="0"/>
      <psa30 value="0.0000320886" flag="0"/>
    </comp>
    <comp name="20.HNN">
      <acc value="0.0012437999" flag="0"/>
      <vel value="0.0003783362" flag="0"/>
      <psa03 value="0.0022894713" flag="0"/>
      <psa10 value="0.0002765429" flag="0"/>
      <psa30 value="0.0000316558" flag="0"/>
    </comp>
  </station>
  <station code="LGDA" name="LGDA" netid="GO" source="GNSMC" insttype="Fortis" commtype="DIG" lat="41.8356" lon="46.2395">
    <comp name="10.HNZ">
      <acc value="0.0152181074" flag="0"/>
      <vel value="0.0048940139" flag="0"/>
      <psa03 value="0.0230882951" flag="0"/>
      <psa10 value="0.0007234879" flag="0"/>
      <psa30 value="0.0001030447" flag="0"/>
    </comp>
    <comp name="10.HNE">
      <acc value="0.0158022701" flag="0"/>
      <vel value="0.0061881553" flag="0"/>
      <psa03 value="0.0434726024" flag="0"/>
      <psa10 value="0.0016271173" flag="0"/>
      <psa30 value="0.0001292319" flag="0"/>
    </comp>
    <comp name="10.HNN">
      <acc value="0.0182752036" flag="0"/>
      <vel value="0.0074049806" flag="0"/>
      <psa03 value="0.0327201184" flag="0"/>
      <psa10 value="0.0022636533" flag="0"/>
      <psa30 value="0.0001740650" flag="0"/>
    </comp>
  </station>
  <station code="LPNA" name="LPNA" netid="GO" source="GNSMC" insttype="CMG-5TC" commtype="DIG" lat="42.0574" lon="45.6003">
    <comp name="10.HNE">
      <acc value="0.0057921343" flag="0"/>
      <vel value="0.0016321059" flag="0"/>
      <psa03 value="0.0094880045" flag="0"/>
      <psa10 value="0.0004383543" flag="0"/>
      <psa30 value="0.0001126158" flag="0"/>
    </comp>
    <comp name="10.HNZ">
      <acc value="0.0063798937" flag="0"/>
      <vel value="0.0010073937" flag="0"/>
      <psa03 value="0.0033574022" flag="0"/>
      <psa10 value="0.0002167620" flag="0"/>
      <psa30 value="0.0000721903" flag="0"/>
    </comp>
    <comp name="10.HNN">
      <acc value="0.0048536199" flag="0"/>
      <vel value="0.0013022848" flag="0"/>
      <psa03 value="0.0079080696" flag="0"/>
      <psa10 value="0.0005247913" flag="0"/>
      <psa30 value="0.0000799207" flag="0"/>
    </comp>
  </station>
  <station code="MINA" name="MINA" netid="GO" source="GNSMC" insttype="" commtype="DIG" lat="41.596" lon="43.018">
    <comp name="20.HNE">
      <acc value="0.0021268712" flag="0"/>
      <vel value="0.0007216303" flag="0"/>
      <psa03 value="0.0041417053" flag="0"/>
      <psa10 value="0.0001531844" flag="0"/>
      <psa30 value="0.0000265628" flag="0"/>
    </comp>
    <comp name="20.HNZ">
      <acc value="0.0011390256" flag="0"/>
      <vel value="0.0002112763" flag="0"/>
      <psa03 value="0.0008376758" flag="0"/>
      <psa10 value="0.0001178718" flag="0"/>
      <psa30 value="0.0000306316" flag="0"/>
    </comp>
    <comp name="20.HNN">
      <acc value="0.0013695344" flag="0"/>
      <vel value="0.0004602834" flag="0"/>
      <psa03 value="0.0022913971" flag="0"/>
      <psa10 value="0.0001247858" flag="0"/>
      <psa30 value="0.0000336191" flag="0"/>
    </comp>
  </station>
  <station code="MUGA" name="MUGA" netid="GO" source="GNSMC" insttype="5TC" commtype="DIG" lat="42.2904" lon="44.6421">
    <comp name="10.HNZ">
      <acc value="0.0195126775" flag="0"/>
      <vel value="0.0023599604" flag="0"/>
      <psa03 value="0.0048858603" flag="0"/>
      <psa10 value="0.0004196245" flag="0"/>
      <psa30 value="0.0000934842" flag="0"/>
    </comp>
    <comp name="10.HNE">
      <acc value="0.0228986001" flag="0"/>
      <vel value="0.0048414377" flag="0"/>
      <psa03 value="0.0156211573" flag="0"/>
      <psa10 value="0.0007229865" flag="0"/>
      <psa30 value="0.0000987275" flag="0"/>
    </comp>
    <comp name="10.HNN">
      <acc value="0.0272295059" flag="0"/>
      <vel value="0.0048863004" flag="0"/>
      <psa03 value="0.0146693644" flag="0"/>
      <psa10 value="0.0006474514" flag="0"/>
      <psa30 value="0.0001122695" flag="0"/>
    </comp>
  </station>
  <station code="MZEG" name="MZEG" netid="GO" source="GNSMC" insttype="" commtype="DIG" lat="41.789" lon="43.534">
    <comp name="10.HNN">
      <acc value="0.0068969006" flag="0"/>
      <vel value="0.0015184855" flag="0"/>
      <psa03 value="0.0054974016" flag="0"/>
      <psa10 value="0.0003881794" flag="0"/>
      <psa30 value="0.0000273533" flag="0"/>
    </comp>
    <comp name="10.HNE">
      <acc value="0.0148652929" flag="0"/>
      <vel value="0.0026480170" flag="0"/>
      <psa03 value="0.0064954848" flag="0"/>
      <psa10 value="0.0003686500" flag="0"/>
      <psa30 value="0.0000412136" flag="0"/>
    </comp>
    <comp name="10.HNZ">
      <acc value="0.0064353697" flag="0"/>
      <vel value="0.0015622712" flag="0"/>
      <psa03 value="0.0119543324" flag="0"/>
      <psa10 value="0.0003424567" flag="0"/>
      <psa30 value="0.0000343491" flag="0"/>
    </comp>
  </station>
  <station code="S185" name="S185" netid="GO" source="GNSMC" insttype="Episensor2" commtype="DIG" lat="41.7098" lon="44.8826">
    <comp name="20.HNN">
      <acc value="0.0030152851" flag="0"/>
      <vel value="0.0003878608" flag="0"/>
      <psa03 value="0.0004269970" flag="0"/>
      <psa10 value="0.0000312009" flag="0"/>
      <psa30 value="0.0000047523" flag="0"/>
    </comp>
    <comp name="20.HNZ">
      <acc value="0.0085258291" flag="0"/>
      <vel value="0.0008882353" flag="0"/>
      <psa03 value="0.0009323509" flag="0"/>
      <psa10 value="0.0000651401" flag="0"/>
      <psa30 value="0.0000068425" flag="0"/>
    </comp>
    <comp name="20.HNE">
      <acc value="0.0069534360" flag="0"/>
      <vel value="0.0005864660" flag="0"/>
      <psa03 value="0.0011254611" flag="0"/>
      <psa10 value="0.0000716820" flag="0"/>
      <psa30 value="0.0000072470" flag="0"/>
    </comp>
  </station>
  <station code="S186" name="S186" netid="GO" source="GNSMC" insttype="" commtype="DIG" lat="41.7905" lon="44.7594">
    <comp name="20.HNN">
      <acc value="0.1226757001" flag="0"/>
      <vel value="0.0387496214" flag="0"/>
      <psa03 value="0.2806954834" flag="0"/>
      <psa10 value="0.0076715728" flag="0"/>
      <psa30 value="0.0007405449" flag="0"/>
    </comp>
    <comp name="20.HNZ">
      <acc value="0.2012995322" flag="0"/>
      <vel value="0.0461011481" flag="0"/>
      <psa03 value="0.1013687927" flag="0"/>
      <psa10 value="0.0059738687" flag="0"/>
      <psa30 value="0.0006879456" flag="0"/>
    </comp>
    <comp name="20.HNE">
      <acc value="0.2857805047" flag="0"/>
      <vel value="0.0949434547" flag="0"/>
      <psa03 value="0.3165965528" flag="0"/>
      <psa10 value="0.0142420419" flag="0"/>
      <psa30 value="0.0013968770" flag="0"/>
    </comp>
  </station>
  <station code="SC07" name="SC07" netid="GO" source="GNSMC" insttype="001496" commtype="DIG" lat="41.9281" lon="45.4751">
    <comp name="20.HNZ">
      <acc value="0.0059181006" flag="0"/>
      <vel value="0.0011294193" flag="0"/>
      <psa03 value="0.0044806398" flag="0"/>
      <psa10 value="0.0015186156" flag="0"/>
      <psa30 value="0.0000736108" flag="0"/>
    </comp>
    <comp name="20.HNE">
      <acc value="0.0049347085" flag="0"/>
      <vel value="0.0013803644" flag="0"/>
      <psa03 value="0.0102578813" flag="0"/>
      <psa10 value="0.0005436495" flag="0"/>
      <psa30 value="0.0000980096" flag="0"/>
    </comp>
    <comp name="20.HNN">
      <acc value="0.0057287275" flag="0"/>
      <vel value="0.0014401577" flag="0"/>
      <psa03 value="0.0068280837" flag="0"/>
      <psa10 value="0.0009164552" flag="0"/>
      <psa30 value="0.0001713340" flag="0"/>
    </comp>
  </station>
  <station code="SEAG" name="SEAG" netid="GO" source="GNSMC" insttype="CMG-5T" commtype="DIG" lat="41.7636" lon="44.8036">
    <comp name="10.HNE">
      <acc value="0.1364258123" flag="0"/>
      <vel value="0.0366517688" flag="0"/>
      <psa03 value="0.1173859549" flag="0"/>
      <psa10 value="0.0059509709" flag="0"/>
      <psa30 value="0.0005218792" flag="0"/>
    </comp>
    <comp name="10.HNZ">
      <acc value="0.1180068322" flag="0"/>
      <vel value="0.0285237484" flag="0"/>
      <psa03 value="0.0960404710" flag="0"/>
      <psa10 value="0.0030103543" flag="0"/>
      <psa30 value="0.0003383948" flag="0"/>
    </comp>
    <comp name="10.HNN">
      <acc value="0.1461575111" flag="0"/>
      <vel value="0.0331888141" flag="0"/>
      <psa03 value="0.1085852267" flag="0"/>
      <psa10 value="0.0046753165" flag="0"/>
      <psa30 value="0.0005338949" flag="0"/>
    </comp>
  </station>
  <station code="SHNK" name="SHNK" netid="GO" source="GNSMC" insttype="" commtype="DIG" lat="42.3717" lon="45.6539">
    <comp name="20.HNE">
      <acc value="0.0069983366" flag="0"/>
      <vel value="0.0013929551" flag="0"/>
      <psa03 value="0.0069044282" flag="0"/>
      <psa10 value="0.0002767169" flag="0"/>
      <psa30 value="0.0000279363" flag="0"/>
    </comp>
    <comp name="20.HNN">
      <acc value="0.0089794632" flag="0"/>
      <vel value="0.0012386566" flag="0"/>
      <psa03 value="0.0064479420" flag="0"/>
      <psa10 value="0.0002540351" flag="0"/>
      <psa30 value="0.0000478900" flag="0"/>
    </comp>
    <comp name="20.HNZ">
      <acc value="0.0033590955" flag="0"/>
      <vel value="0.0006604437" flag="0"/>
      <psa03 value="0.0033731250" flag="0"/>
      <psa10 value="0.0002064632" flag="0"/>
      <psa30 value="0.0000331721" flag="0"/>
    </comp>
  </station>
  <station code="TBLG" name="TBLG" netid="GO" source="GNSMC" insttype="Fortis" commtype="DIG" lat="41.7308" lon="44.7382">
    <comp name="10.HNE">
      <acc value="0.2264338373" flag="0"/>
      <vel value="0.0402649112" flag="0"/>
      <psa03 value="0.0878347609" flag="0"/>
      <psa10 value="0.0056223786" flag="0"/>
      <psa30 value="0.0006522489" flag="0"/>
    </comp>
    <comp name="10.HNN">
      <acc value="0.1534019111" flag="0"/>
      <vel value="0.0245872881" flag="0"/>
      <psa03 value="0.0656817246" flag="0"/>
      <psa10 value="0.0034268846" flag="0"/>
      <psa30 value="0.0003289498" flag="0"/>
    </comp>
    <comp name="10.HNZ">
      <acc value="0.2023908410" flag="0"/>
      <vel value="0.0269816335" flag="0"/>
      <psa03 value="0.0289323860" flag="0"/>
      <psa10 value="0.0022718290" flag="0"/>
      <psa30 value="0.0002486965" flag="0"/>
    </comp>
  </station>
  <station code="TRLT" name="TRLT" netid="GO" source="GNSMC" insttype="" commtype="DIG" lat="41.5695" lon="44.1546">
    <comp name="20.HNE">
      <acc value="0.0688734770" flag="0"/>
      <vel value="0.0089851647" flag="0"/>
      <psa03 value="0.0095088349" flag="0"/>
      <psa10 value="0.0007037217" flag="0"/>
      <psa30 value="0.0000630298" flag="0"/>
    </comp>
    <comp name="20.HNZ">
      <acc value="0.0323230755" flag="0"/>
      <vel value="0.0048498751" flag="0"/>
      <psa03 value="0.0058507534" flag="0"/>
      <psa10 value="0.0003442081" flag="0"/>
      <psa30 value="0.0000432912" flag="0"/>
    </comp>
    <comp name="20.HNN">
      <acc value="0.0381508447" flag="0"/>
      <vel value="0.0062745465" flag="0"/>
