<?xml version="1.0" encoding="UTF-8"?>
<seiscomp xmlns="http://geofon.gfz-potsdam.de/ns/seiscomp3-schema/0.13" version="0.13">
  <EventParameters>
    <pick publicID="20240427.015336.44-GO.EMLK.00.HHZ">
      <time>
        <value>2024-04-27T01:53:36.44Z</value>
      </time>
      <waveformID networkCode="GO" stationCode="EMLK" locationCode="00" channelCode="HHZ"/>
      <filterID>RMHP(10)&gt;&gt;BW(4,5,20)&gt;&gt;STALTA(1.0,30)</filterID>
      <methodID>Trigger</methodID>
      <phaseHint>P</phaseHint>
      <evaluationMode>automatic</evaluationMode>
      <creationInfo>
        <agencyID>GNSMC</agencyID>
        <author>scautopick@seiscomp</author>
        <creationTime>2024-04-27T01:53:47.925836Z</creationTime>
      </creationInfo>
    </pick>
    <pick publicID="20240427.015338.40-GO.AKHN.00.HHZ">
      <time>
        <value>2024-04-27T01:53:38.4Z</value>
      </time>
      <waveformID networkCode="GO" stationCode="AKHN" locationCode="00" channelCode="HHZ"/>
      <filterID>RMHP(10)&gt;&gt;BW(4,5,20)&gt;&gt;STALTA(1.0,30)</filterID>
      <methodID>Trigger</methodID>
      <phaseHint>P</phaseHint>
      <evaluationMode>automatic</evaluationMode>
      <creationInfo>
        <agencyID>GNSMC</agencyID>
        <author>scautopick@seiscomp</author>
        <creationTime>2024-04-27T01:53:46.176118Z</creationTime>
      </creationInfo>
    </pick>
    <pick publicID="20240427.015341.25-A2.ZRSH.00.HHZ">
      <time>
        <value>2024-04-27T01:53:41.25Z</value>
      </time>
      <waveformID networkCode="A2" stationCode="ZRSH" locationCode="00" channelCode="HHZ"/>
      <filterID>RMHP(10)&gt;&gt;BW(4,5,20)&gt;&gt;STALTA(1.0,30)</filterID>
      <methodID>Trigger</methodID>
      <phaseHint>P</phaseHint>
      <evaluationMode>automatic</evaluationMode>
      <creationInfo>
        <agencyID>GNSMC</agencyID>
        <author>scautopick@seiscomp</author>
        <creationTime>2024-04-27T01:53:42.462685Z</creationTime>
      </creationInfo>
    </pick>
    <pick publicID="20240427.015342.78-GO.AZNN.00.HHZ">
      <time>
        <value>2024-04-27T01:53:42.78Z</value>
      </time>
      <waveformID networkCode="GO" stationCode="AZNN" locationCode="00" channelCode="HHZ"/>
      <filterID>RMHP(10)&gt;&gt;BW(4,5,20)&gt;&gt;STALTA(1.0,30)</filterID>
      <methodID>Trigger</methodID>
      <phaseHint>P</phaseHint>
      <evaluationMode>automatic</evaluationMode>
      <creationInfo>
        <agencyID>GNSMC</agencyID>
        <author>scautopick@seiscomp</author>
        <creationTime>2024-04-27T01:53:46.308966Z</creationTime>
      </creationInfo>
    </pick>
    <pick publicID="20240427.015346.03-GO.MINA.00.HHZ">
      <time>
        <value>2024-04-27T01:53:46.03Z</value>
      </time>
      <waveformID networkCode="GO" stationCode="MINA" locationCode="00" channelCode="HHZ"/>
      <filterID>RMHP(10)&gt;&gt;BW(4,5,20)&gt;&gt;STALTA(1.0,30)</filterID>
      <methodID>Trigger</methodID>
      <phaseHint>P</phaseHint>
      <evaluationMode>automatic</evaluationMode>
      <creationInfo>
        <agencyID>GNSMC</agencyID>
        <author>scautopick@seiscomp</author>
        <creationTime>2024-04-27T01:53:46.954923Z</creationTime>
      </creationInfo>
    </pick>
    <pick publicID="20240427.015345.94-A2.SHMT.00.HHZ">
      <time>
        <value>2024-04-27T01:53:45.94Z</value>
      </time>
      <waveformID networkCode="A2" stationCode="SHMT" locationCode="00" channelCode="HHZ"/>
      <filterID>RMHP(10)&gt;&gt;BW(4,5,20)&gt;&gt;STALTA(1.0,30)</filterID>
      <methodID>Trigger</methodID>
      <phaseHint>P</phaseHint>
      <evaluationMode>automatic</evaluationMode>
      <creationInfo>
        <agencyID>GNSMC</agencyID>
        <author>scautopick@seiscomp</author>
        <creationTime>2024-04-27T01:53:47.26162Z</creationTime>
      </creationInfo>
    </pick>
    <pick publicID="20240427.015347.61-GO.DSHG.00.HHZ">
      <time>
        <value>2024-04-27T01:53:47.61Z</value>
      </time>
      <waveformID networkCode="GO" stationCode="DSHG" locationCode="00" channelCode="HHZ"/>
      <filterID>RMHP(10)&gt;&gt;BW(4,5,20)&gt;&gt;STALTA(1.0,30)</filterID>
      <methodID>Trigger</methodID>
      <phaseHint>P</phaseHint>
      <evaluationMode>automatic</evaluationMode>
      <creationInfo>
        <agencyID>GNSMC</agencyID>
        <author>scautopick@seiscomp</author>
        <creationTime>2024-04-27T01:53:49.04534Z</creationTime>
      </creationInfo>
    </pick>
    <pick publicID="20240427.015348.39-GO.KHAR.00.HHZ">
      <time>
        <value>2024-04-27T01:53:48.39Z</value>
      </time>
      <waveformID networkCode="GO" stationCode="KHAR" locationCode="00" channelCode="HHZ"/>
      <filterID>RMHP(10)&gt;&gt;BW(4,5,20)&gt;&gt;STALTA(1.0,30)</filterID>
      <methodID>Trigger</methodID>
      <phaseHint>P</phaseHint>
      <evaluationMode>automatic</evaluationMode>
      <creationInfo>
        <agencyID>GNSMC</agencyID>
        <author>scautopick@seiscomp</author>
        <creationTime>2024-04-27T01:53:51.157569Z</creationTime>
      </creationInfo>
    </pick>
    <pick publicID="20240427.015352.05-GO.KHRT.00.HHZ">
      <time>
        <value>2024-04-27T01:53:52.05Z</value>
      </time>
      <waveformID networkCode="GO" stationCode="KHRT" locationCode="00" channelCode="HHZ"/>
      <filterID>RMHP(10)&gt;&gt;BW(4,5,20)&gt;&gt;STALTA(1.0,30)</filterID>
      <methodID>Trigger</methodID>
      <phaseHint>P</phaseHint>
      <evaluationMode>automatic</evaluationMode>
      <creationInfo>
        <agencyID>GNSMC</agencyID>
        <author>scautopick@seiscomp</author>
        <creationTime>2024-04-27T01:53:54.961878Z</creationTime>
      </creationInfo>
    </pick>
    <pick publicID="20240427.015352.61-GO.MTAG.00.HHZ">
      <time>
        <value>2024-04-27T01:53:52.61Z</value>
      </time>
      <waveformID networkCode="GO" stationCode="MTAG" locationCode="00" channelCode="HHZ"/>
      <filterID>RMHP(10)&gt;&gt;BW(4,5,20)&gt;&gt;STALTA(1.0,30)</filterID>
      <methodID>Trigger</methodID>
      <phaseHint>P</phaseHint>
      <evaluationMode>automatic</evaluationMode>
      <creationInfo>
        <agencyID>GNSMC</agencyID>
        <author>scautopick@seiscomp</author>
        <creationTime>2024-04-27T01:53:55.027451Z</creationTime>
      </creationInfo>
    </pick>
    <pick publicID="20240427.015356.33-AB.TOVZ.00.HHZ">
      <time>
        <value>2024-04-27T01:53:56.33Z</value>
      </time>
      <waveformID networkCode="AB" stationCode="TOVZ" locationCode="00" channelCode="HHZ"/>
      <filterID>RMHP(10)&gt;&gt;BW(4,5,20)&gt;&gt;STALTA(1.0,30)</filterID>
      <methodID>Trigger</methodID>
      <phaseHint>P</phaseHint>
      <evaluationMode>automatic</evaluationMode>
      <creationInfo>
        <agencyID>GNSMC</agencyID>
        <author>scautopick@seiscomp</author>
        <creationTime>2024-04-27T01:53:58.939005Z</creationTime>
      </creationInfo>
    </pick>
    <pick publicID="20240427.015345.07-GO.ALIG.00.HHZ">
      <time>
        <value>2024-04-27T01:53:45.07Z</value>
      </time>
      <waveformID networkCode="GO" stationCode="ALIG" locationCode="00" channelCode="HHZ"/>
      <filterID>RMHP(10)&gt;&gt;BW(4,5,20)&gt;&gt;STALTA(1.0,30)</filterID>
      <methodID>Trigger</methodID>
      <phaseHint>P</phaseHint>
      <evaluationMode>automatic</evaluationMode>
      <creationInfo>
        <agencyID>GNSMC</agencyID>
        <author>scautopick@seiscomp</author>
        <creationTime>2024-04-27T01:54:00.980856Z</creationTime>
      </creationInfo>
    </pick>
    <pick publicID="20240427.015352.25-AB.QZX..HHZ">
      <time>
        <value>2024-04-27T01:53:52.258393Z</value>
      </time>
      <waveformID networkCode="AB" stationCode="QZX" channelCode="HHZ"/>
      <filterID>RMHP(10)&gt;&gt;BW(4,5,20)&gt;&gt;STALTA(1.0,30)</filterID>
      <methodID>Trigger</methodID>
      <phaseHint>P</phaseHint>
      <evaluationMode>automatic</evaluationMode>
      <creationInfo>
        <agencyID>GNSMC</agencyID>
        <author>scautopick@seiscomp</author>
        <creationTime>2024-04-27T01:53:58.382673Z</creationTime>
      </creationInfo>
    </pick>
    <pick publicID="20240427.015348.08-XA.GP40..HHZ">
      <time>
        <value>2024-04-27T01:53:48.080001Z</value>
      </time>
      <waveformID networkCode="XA" stationCode="GP40" channelCode="HHZ"/>
      <filterID>RMHP(10)&gt;&gt;ITAPER(30)&gt;&gt;BW(4,0.7,2)&gt;&gt;STALTA(2,80)</filterID>
      <methodID>Trigger</methodID>
      <phaseHint>P</phaseHint>
      <evaluationMode>automatic</evaluationMode>
      <creationInfo>
        <agencyID>GNSMC</agencyID>
        <author>scautopick@seiscomp</author>
        <creationTime>2024-04-27T01:53:59.326136Z</creationTime>
      </creationInfo>
    </pick>
    <pick publicID="20240427.015352.93-GO.CHRG..HHZ">
      <time>
        <value>2024-04-27T01:53:52.93Z</value>
      </time>
      <waveformID networkCode="GO" stationCode="CHRG" channelCode="HHZ"/>
      <filterID>RMHP(10)&gt;&gt;BW(4,5,20)&gt;&gt;STALTA(1.0,30)</filterID>
      <methodID>Trigger</methodID>
      <phaseHint>P</phaseHint>
      <evaluationMode>automatic</evaluationMode>
      <creationInfo>
        <agencyID>GNSMC</agencyID>
        <author>scautopick@seiscomp</author>
        <creationTime>2024-04-27T01:53:59.558716Z</creationTime>
      </creationInfo>
    </pick>
    <pick publicID="20240427.015357.11-GO.LPNG.00.HHZ">
      <time>
        <value>2024-04-27T01:53:57.11Z</value>
      </time>
      <waveformID networkCode="GO" stationCode="LPNG" locationCode="00" channelCode="HHZ"/>
      <filterID>RMHP(10)&gt;&gt;BW(4,5,20)&gt;&gt;STALTA(1.0,30)</filterID>
      <methodID>Trigger</methodID>
      <phaseHint>P</phaseHint>
      <evaluationMode>automatic</evaluationMode>
      <creationInfo>
        <agencyID>GNSMC</agencyID>
        <author>scautopick@seiscomp</author>
        <creationTime>2024-04-27T01:54:06.898889Z</creationTime>
      </creationInfo>
    </pick>
    <pick publicID="20240427.015400.17-GO.SHNK.00.HHZ">
      <time>
        <value>2024-04-27T01:54:00.17Z</value>
      </time>
      <waveformID networkCode="GO" stationCode="SHNK" locationCode="00" channelCode="HHZ"/>
      <filterID>RMHP(10)&gt;&gt;BW(4,5,20)&gt;&gt;STALTA(1.0,30)</filterID>
      <methodID>Trigger</methodID>
      <phaseHint>P</phaseHint>
      <evaluationMode>automatic</evaluationMode>
      <creationInfo>
        <agencyID>GNSMC</agencyID>
        <author>scautopick@seiscomp</author>
        <creationTime>2024-04-27T01:54:04.907944Z</creationTime>
      </creationInfo>
    </pick>
    <pick publicID="20240427.015404.10-GO.LGDN.00.HHZ">
      <time>
        <value>2024-04-27T01:54:04.1Z</value>
      </time>
      <waveformID networkCode="GO" stationCode="LGDN" locationCode="00" channelCode="HHZ"/>
      <filterID>RMHP(10)&gt;&gt;BW(4,5,20)&gt;&gt;STALTA(1.0,30)</filterID>
      <methodID>Trigger</methodID>
      <phaseHint>P</phaseHint>
      <evaluationMode>automatic</evaluationMode>
      <creationInfo>
        <agencyID>GNSMC</agencyID>
        <author>scautopick@seiscomp</author>
        <creationTime>2024-04-27T01:54:12.020591Z</creationTime>
      </creationInfo>
    </pick>
    <pick publicID="20240427.015357.66-TU.EAK..HHZ">
      <time>
        <value>2024-04-27T01:53:57.66Z</value>
      </time>
      <waveformID networkCode="TU" stationCode="EAK" channelCode="HHZ"/>
      <filterID>RMHP(10)&gt;&gt;BW(4,5,20)&gt;&gt;STALTA(1.0,30)</filterID>
      <methodID>Trigger</methodID>
      <phaseHint>P</phaseHint>
      <evaluationMode>automatic</evaluationMode>
      <creationInfo>
        <agencyID>GNSMC</agencyID>
        <author>scautopick@seiscomp</author>
        <creationTime>2024-04-27T01:58:38.84157Z</creationTime>
      </creationInfo>
    </pick>
    <amplitude publicID="Amplitude/20240427015424.021901.122577">
      <type>MLv</type>
      <amplitude>
        <value>0.4894294925275141</value>
      </amplitude>
      <timeWindow>
        <reference>2024-04-27T01:53:42.43Z</reference>
        <begin>-10.99</begin>
        <end>29.67</end>
      </timeWindow>
      <snr>35.050267063554024</snr>
      <pickID>20240427.015336.44-GO.EMLK.00.HHZ</pickID>
      <waveformID networkCode="GO" stationCode="EMLK" locationCode="00" channelCode="HHZ"/>
      <creationInfo>
        <agencyID>GNSMC</agencyID>
        <author>scamp@seiscomp</author>
        <creationTime>2024-04-27T01:54:24.021968Z</creationTime>
      </creationInfo>
    </amplitude>
    <amplitude publicID="Amplitude/20240427015431.871145.122582">
      <type>MLv</type>
      <amplitude>
        <value>0.06292282886386344</value>
      </amplitude>
      <timeWindow>
        <reference>2024-04-27T01:53:49.41Z</reference>
        <begin>-13.16</begin>
        <end>37.95</end>
      </timeWindow>
      <snr>7.250903678822269</snr>
      <pickID>20240427.015341.25-A2.ZRSH.00.HHZ</pickID>
      <waveformID networkCode="A2" stationCode="ZRSH" locationCode="00" channelCode="HHZ"/>
      <creationInfo>
        <agencyID>GNSMC</agencyID>
        <author>scamp@seiscomp</author>
        <creationTime>2024-04-27T01:54:31.871299Z</creationTime>
      </creationInfo>
    </amplitude>
    <amplitude publicID="Amplitude/20240427015435.731097.122583">
      <type>MLv</type>
      <amplitude>
        <value>0.05273561342931787</value>
      </amplitude>
      <timeWindow>
        <reference>2024-04-27T01:53:57.54Z</reference>
        <begin>-19.76</begin>
        <end>36.26</end>
      </timeWindow>
      <snr>2.867198043846928</snr>
      <pickID>20240427.015342.78-GO.AZNN.00.HHZ</pickID>
      <waveformID networkCode="GO" stationCode="AZNN" locationCode="00" channelCode="HHZ"/>
      <creationInfo>
        <agencyID>GNSMC</agencyID>
        <author>scamp@seiscomp</author>
        <creationTime>2024-04-27T01:54:35.731285Z</creationTime>
      </creationInfo>
    </amplitude>
    <amplitude publicID="Amplitude/20240427015444.633426.122584">
      <type>MLv</type>
      <amplitude>
        <value>0.038890933342371613</value>
      </amplitude>
      <timeWindow>
        <reference>2024-04-27T01:54:01.35Z</reference>
        <begin>-20.32</begin>
        <end>42.36</end>
      </timeWindow>
      <snr>2.6916054851694335</snr>
      <pickID>20240427.015346.03-GO.MINA.00.HHZ</pickID>
      <waveformID networkCode="GO" stationCode="MINA" locationCode="00" channelCode="HHZ"/>
      <creationInfo>
        <agencyID>GNSMC</agencyID>
        <author>scamp@seiscomp</author>
        <creationTime>2024-04-27T01:54:44.633781Z</creationTime>
      </creationInfo>
    </amplitude>
    <amplitude publicID="Amplitude/20240427015448.613471.122585">
      <type>MLv</type>
      <amplitude>
        <value>0.0868243611410749</value>
      </amplitude>
      <timeWindow>
        <reference>2024-04-27T01:53:56.54Z</reference>
        <begin>-15.6</begin>
        <end>47.66</end>
      </timeWindow>
      <snr>8.386095516704685</snr>
      <pickID>20240427.015345.94-A2.SHMT.00.HHZ</pickID>
      <waveformID networkCode="A2" stationCode="SHMT" locationCode="00" channelCode="HHZ"/>
      <creationInfo>
        <agencyID>GNSMC</agencyID>
        <author>scamp@seiscomp</author>
        <creationTime>2024-04-27T01:54:48.613656Z</creationTime>
      </creationInfo>
    </amplitude>
    <amplitude publicID="Amplitude/20240427015450.878118.122586">
      <type>MLv</type>
      <amplitude>
        <value>0.026865909461351232</value>
      </amplitude>
      <timeWindow>
        <reference>2024-04-27T01:54:41.81Z</reference>
        <begin>-59.2</begin>
        <end>7.29</end>
      </timeWindow>
      <snr>1.800099615184422</snr>
      <pickID>20240427.015347.61-GO.DSHG.00.HHZ</pickID>
      <waveformID networkCode="GO" stationCode="DSHG" locationCode="00" channelCode="HHZ"/>
      <creationInfo>
        <agencyID>GNSMC</agencyID>
        <author>scamp@seiscomp</author>
        <creationTime>2024-04-27T01:54:50.878276Z</creationTime>
      </creationInfo>
    </amplitude>
    <amplitude publicID="Amplitude/20240427015453.008763.122587">
      <type>MLv</type>
      <amplitude>
        <value>0.03669598850883688</value>
      </amplitude>
      <timeWindow>
        <reference>2024-04-27T01:54:01.73Z</reference>
        <begin>-18.34</begin>
        <end>49.86</end>
      </timeWindow>
      <snr>1.8884027707813866</snr>
      <pickID>20240427.015348.39-GO.KHAR.00.HHZ</pickID>
      <waveformID networkCode="GO" stationCode="KHAR" locationCode="00" channelCode="HHZ"/>
      <creationInfo>
        <agencyID>GNSMC</agencyID>
        <author>scamp@seiscomp</author>
        <creationTime>2024-04-27T01:54:53.008935Z</creationTime>
      </creationInfo>
    </amplitude>
    <amplitude publicID="Amplitude/20240427015459.075526.122594">
      <type>MLv</type>
      <amplitude>
        <value>0.17821461252156268</value>
      </amplitude>
      <timeWindow>
        <reference>2024-04-27T01:53:44.58Z</reference>
        <begin>-11.18</begin>
        <end>36.55</end>
      </timeWindow>
      <snr>13.71663389459948</snr>
      <pickID>20240427.015338.40-GO.AKHN.00.HHZ</pickID>
      <waveformID networkCode="GO" stationCode="AKHN" locationCode="00" channelCode="HHZ"/>
      <creationInfo>
        <agencyID>GNSMC</agencyID>
        <author>scamp@seiscomp</author>
        <creationTime>2024-04-27T01:54:59.075604Z</creationTime>
      </creationInfo>
    </amplitude>
    <amplitude publicID="Amplitude/20240427015505.017274.122596">
      <type>MLv</type>
      <amplitude>
        <value>0.027025863354203008</value>
      </amplitude>
      <timeWindow>
        <reference>2024-04-27T01:54:42.62Z</reference>
        <begin>-55.57</begin>
        <end>20.38</end>
      </timeWindow>
      <snr>1.8698532687099074</snr>
      <pickID>20240427.015352.05-GO.KHRT.00.HHZ</pickID>
      <waveformID networkCode="GO" stationCode="KHRT" locationCode="00" channelCode="HHZ"/>
      <creationInfo>
        <agencyID>GNSMC</agencyID>
        <author>scamp@seiscomp</author>
        <creationTime>2024-04-27T01:55:05.017454Z</creationTime>
      </creationInfo>
    </amplitude>
    <amplitude publicID="Amplitude/20240427015509.194766.122605">
      <type>MLv</type>
      <amplitude>
        <value>0.020097338844337429</value>
      </amplitude>
      <timeWindow>
        <reference>2024-04-27T01:53:57.28Z</reference>
        <begin>-9.67</begin>
        <end>67.76</end>
      </timeWindow>
      <snr>2.0416413233762918</snr>
      <pickID>20240427.015352.61-GO.MTAG.00.HHZ</pickID>
      <waveformID networkCode="GO" stationCode="MTAG" locationCode="00" channelCode="HHZ"/>
      <creationInfo>
        <agencyID>GNSMC</agencyID>
        <author>scamp@seiscomp</author>
        <creationTime>2024-04-27T01:55:09.194919Z</creationTime>
      </creationInfo>
    </amplitude>
    <amplitude publicID="Amplitude/20240427015521.389469.122608">
      <type>MLv</type>
      <amplitude>
        <value>0.019976340480153548</value>
      </amplitude>
      <timeWindow>
        <reference>2024-04-27T01:54:14.94Z</reference>
        <begin>-23.61</begin>
        <end>62.88</end>
      </timeWindow>
      <snr>1.9950722415258717</snr>
      <pickID>20240427.015356.33-AB.TOVZ.00.HHZ</pickID>
      <waveformID networkCode="AB" stationCode="TOVZ" locationCode="00" channelCode="HHZ"/>
      <creationInfo>
        <agencyID>GNSMC</agencyID>
        <author>scamp@seiscomp</author>
        <creationTime>2024-04-27T01:55:21.38962Z</creationTime>
      </creationInfo>
    </amplitude>
    <amplitude publicID="Amplitude/20240427015508.16568.122604">
      <type>MLv</type>
      <amplitude>
        <value>0.02464628335249923</value>
      </amplitude>
      <timeWindow>
        <reference>2024-04-27T01:53:45.06Z</reference>
        <begin>-4.99</begin>
        <end>57.52</end>
      </timeWindow>
      <snr>2.607919937608142</snr>
      <pickID>20240427.015345.07-GO.ALIG.00.HHZ</pickID>
      <waveformID networkCode="GO" stationCode="ALIG" locationCode="00" channelCode="HHZ"/>
      <creationInfo>
