<?xml version="1.0" encoding="UTF-8" standalone="yes"?>
<!DOCTYPE earthquake SYSTEM "stationlist.dtd">
<stationlist created="" xmlns="ch.ethz.sed.shakemap.usgs.xml">
  <station code="ARZK" name="ARZK" netid="A2" insttype="" commtype="DIG" lat="40.4284" lon="44.5899">
    <comp name="00.HHE">
      <acc value="0.0119605986" flag="0"/>
      <vel value="0.0054057992" flag="0"/>
      <psa03 value="0.0211696216" flag="0"/>
      <psa10 value="0.0031305960" flag="0"/>
      <psa30 value="0.0001929115" flag="0"/>
    </comp>
    <comp name="00.HHZ">
      <acc value="0.0057935458" flag="0"/>
      <vel value="0.0021214291" flag="0"/>
      <psa03 value="0.0105456681" flag="0"/>
      <psa10 value="0.0022335196" flag="0"/>
      <psa30 value="0.0001133044" flag="0"/>
    </comp>
    <comp name="00.HHN">
      <acc value="0.0106091576" flag="0"/>
      <vel value="0.0053724082" flag="0"/>
      <psa03 value="0.0265979435" flag="0"/>
      <psa10 value="0.0048752789" flag="0"/>
      <psa30 value="0.0002497638" flag="0"/>
    </comp>
  </station>
  <station code="KCHK" name="KCHK" netid="A2" insttype="" commtype="DIG" lat="39.6107" lon="45.1995">
    <comp name="00.HHZ">
      <acc value="0.0006120817" flag="0"/>
      <vel value="0.0002728075" flag="0"/>
      <psa03 value="0.0013950046" flag="0"/>
      <psa10 value="0.0002184119" flag="0"/>
      <psa30 value="0.0000288251" flag="0"/>
    </comp>
    <comp name="00.HHE">
      <acc value="0.0017692472" flag="0"/>
      <vel value="0.0009335441" flag="0"/>
      <psa03 value="0.0058117290" flag="0"/>
      <psa10 value="0.0003572827" flag="0"/>
      <psa30 value="0.0000414012" flag="0"/>
    </comp>
    <comp name="00.HHN">
      <acc value="0.0005383382" flag="0"/>
      <vel value="0.0002815308" flag="0"/>
      <psa03 value="0.0021961332" flag="0"/>
      <psa10 value="0.0003375446" flag="0"/>
      <psa30 value="0.0000451346" flag="0"/>
    </comp>
  </station>
  <station code="LRNG" name="LRNG" netid="A2" insttype="" commtype="DIG" lat="40.2587" lon="43.874">
    <comp name="00.HHZ">
      <acc value="0.0013767846" flag="0"/>
      <vel value="0.0008898707" flag="0"/>
      <psa03 value="0.0056781312" flag="0"/>
      <psa10 value="0.0008620197" flag="0"/>
      <psa30 value="0.0001050353" flag="0"/>
    </comp>
    <comp name="00.HHE">
      <acc value="0.0018618528" flag="0"/>
      <vel value="0.0013436848" flag="0"/>
      <psa03 value="0.0066607170" flag="0"/>
      <psa10 value="0.0020704062" flag="0"/>
      <psa30 value="0.0001592230" flag="0"/>
    </comp>
    <comp name="00.HHN">
      <acc value="0.0015597501" flag="0"/>
      <vel value="0.0012790869" flag="0"/>
      <psa03 value="0.0072346731" flag="0"/>
      <psa10 value="0.0015009386" flag="0"/>
      <psa30 value="0.0001181549" flag="0"/>
    </comp>
  </station>
  <station code="SHMT" name="SHMT" netid="A2" insttype="" commtype="DIG" lat="40.9435" lon="44.8045">
    <comp name="00.HHN">
      <acc value="0.0108736845" flag="0"/>
      <vel value="0.0068326526" flag="0"/>
      <psa03 value="0.0304713665" flag="0"/>
      <psa10 value="0.0044669310" flag="0"/>
      <psa30 value="0.0002651902" flag="0"/>
    </comp>
    <comp name="00.HHE">
      <acc value="0.0113275817" flag="0"/>
      <vel value="0.0048922143" flag="0"/>
      <psa03 value="0.0225302717" flag="0"/>
      <psa10 value="0.0066326420" flag="0"/>
      <psa30 value="0.0003358229" flag="0"/>
    </comp>
    <comp name="00.HHZ">
      <acc value="0.0101661284" flag="0"/>
      <vel value="0.0055074622" flag="0"/>
      <psa03 value="0.0180595669" flag="0"/>
      <psa10 value="0.0059758235" flag="0"/>
      <psa30 value="0.0002495068" flag="0"/>
    </comp>
  </station>
  <station code="SVZR" name="SVZR" netid="A2" insttype="" commtype="DIG" lat="39.9203" lon="45.472">
    <comp name="00.HHN">
      <acc value="0.0022680551" flag="0"/>
      <vel value="0.0010030065" flag="0"/>
      <psa03 value="0.0106928826" flag="0"/>
      <psa10 value="0.0003442669" flag="0"/>
      <psa30 value="0.0000422817" flag="0"/>
    </comp>
    <comp name="00.HHE">
      <acc value="0.0037987846" flag="0"/>
      <vel value="0.0015509492" flag="0"/>
      <psa03 value="0.0106497868" flag="0"/>
      <psa10 value="0.0006335744" flag="0"/>
      <psa30 value="0.0000883451" flag="0"/>
    </comp>
    <comp name="00.HHZ">
      <acc value="0.0011808625" flag="0"/>
      <vel value="0.0004965390" flag="0"/>
      <psa03 value="0.0025177879" flag="0"/>
      <psa10 value="0.0002235269" flag="0"/>
      <psa30 value="0.0000557966" flag="0"/>
    </comp>
  </station>
  <station code="TTJR" name="TTJR" netid="A2" insttype="" commtype="DIG" lat="40.5972" lon="45.3653">
    <comp name="00.HHZ">
      <acc value="0.0076357643" flag="0"/>
      <vel value="0.0039220721" flag="0"/>
      <psa03 value="0.0133441636" flag="0"/>
      <psa10 value="0.0015997625" flag="0"/>
      <psa30 value="0.0001948707" flag="0"/>
    </comp>
    <comp name="00.HHE">
      <acc value="0.0099965343" flag="0"/>
      <vel value="0.0071461338" flag="0"/>
      <psa03 value="0.0182567720" flag="0"/>
      <psa10 value="0.0041979967" flag="0"/>
      <psa30 value="0.0002347646" flag="0"/>
    </comp>
    <comp name="00.HHN">
      <acc value="0.0117456471" flag="0"/>
      <vel value="0.0069773659" flag="0"/>
      <psa03 value="0.0300855751" flag="0"/>
      <psa10 value="0.0040156213" flag="0"/>
      <psa30 value="0.0002610447" flag="0"/>
    </comp>
  </station>
  <station code="ZRSH" name="ZRSH" netid="A2" insttype="" commtype="DIG" lat="40.9904" lon="43.6716">
    <comp name="00.HHZ">
      <acc value="0.0021834521" flag="0"/>
      <vel value="0.0013320042" flag="0"/>
      <psa03 value="0.0101839938" flag="0"/>
      <psa10 value="0.0011997878" flag="0"/>
      <psa30 value="0.0000919539" flag="0"/>
    </comp>
    <comp name="00.HHE">
      <acc value="0.0039983273" flag="0"/>
      <vel value="0.0022666278" flag="0"/>
      <psa03 value="0.0154495634" flag="0"/>
      <psa10 value="0.0016690149" flag="0"/>
      <psa30 value="0.0003506810" flag="0"/>
    </comp>
    <comp name="00.HHN">
      <acc value="0.0031760821" flag="0"/>
      <vel value="0.0020857280" flag="0"/>
      <psa03 value="0.0094248946" flag="0"/>
      <psa10 value="0.0016350288" flag="0"/>
      <psa30 value="0.0001738990" flag="0"/>
    </comp>
  </station>
  <station code="DSKN" name="DSKN" netid="AB" insttype="" commtype="DIG" lat="40.457" lon="46.023">
    <comp name="00.HHN">
      <acc value="0.0062937624" flag="0"/>
      <vel value="0.0018780229" flag="0"/>
      <psa03 value="0.0058812673" flag="0"/>
      <psa10 value="0.0008508541" flag="0"/>
      <psa30 value="0.0001030122" flag="0"/>
    </comp>
    <comp name="00.HHZ">
      <acc value="0.0042248725" flag="0"/>
      <vel value="0.0016015071" flag="0"/>
      <psa03 value="0.0055818144" flag="0"/>
      <psa10 value="0.0011040019" flag="0"/>
      <psa30 value="0.0001082015" flag="0"/>
    </comp>
    <comp name="00.HHE">
      <acc value="0.0081536387" flag="0"/>
      <vel value="0.0014147456" flag="0"/>
      <psa03 value="0.0055188225" flag="0"/>
      <psa10 value="0.0007278095" flag="0"/>
      <psa30 value="0.0000770579" flag="0"/>
    </comp>
  </station>
  <station code="TOVZ" name="TOVZ" netid="AB" insttype="" commtype="DIG" lat="40.7326" lon="45.5633">
    <comp name="00.HHE">
      <acc value="0.0126738174" flag="0"/>
      <vel value="0.0025613581" flag="0"/>
      <psa03 value="0.0095778116" flag="0"/>
      <psa10 value="0.0009369582" flag="0"/>
      <psa30 value="0.0000891478" flag="0"/>
    </comp>
    <comp name="00.HHN">
      <acc value="0.0091545944" flag="0"/>
      <vel value="0.0024282408" flag="0"/>
      <psa03 value="0.0079666315" flag="0"/>
      <psa10 value="0.0014995641" flag="0"/>
      <psa30 value="0.0000846660" flag="0"/>
    </comp>
    <comp name="00.HHZ">
      <acc value="0.0112491203" flag="0"/>
      <vel value="0.0016416108" flag="0"/>
      <psa03 value="0.0081801256" flag="0"/>
      <psa10 value="0.0007165392" flag="0"/>
      <psa30 value="0.0001019641" flag="0"/>
    </comp>
  </station>
  <station code="AKHA" name="AKHA" netid="GO" source="GNSMC" insttype="Fortis" commtype="DIG" lat="41.4283" lon="43.512">
    <comp name="10.HNZ">
      <acc value="0.0037393044" flag="0"/>
      <vel value="0.0015926347" flag="0"/>
      <psa03 value="0.0109400652" flag="0"/>
      <psa10 value="0.0005332290" flag="0"/>
      <psa30 value="0.0000451890" flag="0"/>
    </comp>
    <comp name="10.HNN">
      <acc value="0.0053676787" flag="0"/>
      <vel value="0.0022458103" flag="0"/>
      <psa03 value="0.0153642922" flag="0"/>
      <psa10 value="0.0011781543" flag="0"/>
      <psa30 value="0.0001162898" flag="0"/>
    </comp>
    <comp name="10.HNE">
      <acc value="0.0091359795" flag="0"/>
      <vel value="0.0030387222" flag="0"/>
      <psa03 value="0.0232486971" flag="0"/>
      <psa10 value="0.0017651529" flag="0"/>
      <psa30 value="0.0001581298" flag="0"/>
    </comp>
  </station>
  <station code="AKHN" name="AKHN" netid="GO" source="GNSMC" insttype="CMG-3ESPC" commtype="DIG" lat="41.4283" lon="43.512">
    <comp name="00.HHZ">
      <acc value="0.0072640470" flag="0"/>
      <vel value="0.0030338226" flag="0"/>
      <psa03 value="0.0216531329" flag="0"/>
      <psa10 value="0.0010574388" flag="0"/>
      <psa30 value="0.0000933997" flag="0"/>
    </comp>
    <comp name="00.HHN">
      <acc value="0.0110195517" flag="0"/>
      <vel value="0.0043653633" flag="0"/>
      <psa03 value="0.0288532332" flag="0"/>
      <psa10 value="0.0023812428" flag="0"/>
      <psa30 value="0.0002676788" flag="0"/>
    </comp>
    <comp name="00.HHE">
      <acc value="0.0139938527" flag="0"/>
      <vel value="0.0061037718" flag="0"/>
      <psa03 value="0.0458957854" flag="0"/>
      <psa10 value="0.0034524264" flag="0"/>
      <psa30 value="0.0003274380" flag="0"/>
    </comp>
  </station>
  <station code="ALIA" name="ALIA" netid="GO" source="GNSMC" insttype="5TC" commtype="DIG" lat="42.1047" lon="43.649">
    <comp name="10.HNN">
      <acc value="0.0451717115" flag="0"/>
      <vel value="0.0113644606" flag="0"/>
      <psa03 value="0.0593573755" flag="0"/>
      <psa10 value="0.0017920757" flag="0"/>
      <psa30 value="0.0001673269" flag="0"/>
    </comp>
    <comp name="10.HNE">
      <acc value="0.0444794715" flag="0"/>
      <vel value="0.0089550731" flag="0"/>
      <psa03 value="0.0473917124" flag="0"/>
      <psa10 value="0.0013649263" flag="0"/>
      <psa30 value="0.0001671432" flag="0"/>
    </comp>
    <comp name="10.HNZ">
      <acc value="0.0225740663" flag="0"/>
      <vel value="0.0037523029" flag="0"/>
      <psa03 value="0.0105503919" flag="0"/>
      <psa10 value="0.0007849173" flag="0"/>
      <psa30 value="0.0000891758" flag="0"/>
    </comp>
  </station>
  <station code="ALIG" name="ALIG" netid="GO" source="GNSMC" insttype="120" commtype="DIG" lat="42.1047" lon="43.649">
    <comp name="00.HHE">
      <acc value="0.0441345463" flag="0"/>
      <vel value="0.0085363939" flag="0"/>
      <psa03 value="0.0465661409" flag="0"/>
      <psa10 value="0.0013346608" flag="0"/>
      <psa30 value="0.0001407709" flag="0"/>
    </comp>
    <comp name="00.HHN">
      <acc value="0.0452269829" flag="0"/>
      <vel value="0.0110100664" flag="0"/>
      <psa03 value="0.0579214432" flag="0"/>
      <psa10 value="0.0017212320" flag="0"/>
      <psa30 value="0.0001543688" flag="0"/>
    </comp>
    <comp name="00.HHZ">
      <acc value="0.0231107118" flag="0"/>
      <vel value="0.0037273705" flag="0"/>
      <psa03 value="0.0110191810" flag="0"/>
      <psa10 value="0.0008085446" flag="0"/>
      <psa30 value="0.0000547777" flag="0"/>
    </comp>
  </station>
  <station code="AZNN" name="AZNN" netid="GO" source="GNSMC" insttype="" commtype="DIG" lat="41.3468" lon="43.2103">
    <comp name="00.HHN">
      <acc value="0.0033256930" flag="0"/>
      <vel value="0.0016732770" flag="0"/>
      <psa03 value="0.0110579945" flag="0"/>
      <psa10 value="0.0014572241" flag="0"/>
      <psa30 value="0.0002603609" flag="0"/>
    </comp>
    <comp name="00.HHE">
      <acc value="0.0034621346" flag="0"/>
      <vel value="0.0021850893" flag="0"/>
      <psa03 value="0.0129733653" flag="0"/>
      <psa10 value="0.0017377193" flag="0"/>
      <psa30 value="0.0002929991" flag="0"/>
    </comp>
    <comp name="00.HHZ">
      <acc value="0.0019627240" flag="0"/>
      <vel value="0.0012360461" flag="0"/>
      <psa03 value="0.0054189300" flag="0"/>
      <psa10 value="0.0009455091" flag="0"/>
      <psa30 value="0.0000909908" flag="0"/>
    </comp>
  </station>
  <station code="BTNK" name="BTNK" netid="GO" source="GNSMC" insttype="CMG-5T" commtype="DIG" lat="41.6832" lon="44.7988">
    <comp name="10.HNN">
      <acc value="0.0612844238" flag="0"/>
      <vel value="0.0086930444" flag="0"/>
      <psa03 value="0.0182385198" flag="0"/>
      <psa10 value="0.0015567603" flag="0"/>
      <psa30 value="0.0001870799" flag="0"/>
    </comp>
    <comp name="10.HNZ">
      <acc value="0.0599778260" flag="0"/>
      <vel value="0.0068002137" flag="0"/>
      <psa03 value="0.0079297658" flag="0"/>
      <psa10 value="0.0014961111" flag="0"/>
      <psa30 value="0.0002502176" flag="0"/>
    </comp>
    <comp name="10.HNE">
      <acc value="0.0466667854" flag="0"/>
      <vel value="0.0085725765" flag="0"/>
      <psa03 value="0.0183241561" flag="0"/>
      <psa10 value="0.0016492031" flag="0"/>
      <psa30 value="0.0004120848" flag="0"/>
    </comp>
  </station>
  <station code="CHBG" name="CHBG" netid="GO" source="GNSMC" insttype="" commtype="DIG" lat="43.0129" lon="42.085">
    <comp name="00.HHN">
      <acc value="0.0008565548" flag="0"/>
      <vel value="0.0005789562" flag="0"/>
      <psa03 value="0.0032184891" flag="0"/>
      <psa10 value="0.0009415226" flag="0"/>
      <psa30 value="0.0001368323" flag="0"/>
    </comp>
    <comp name="00.HHE">
      <acc value="0.0006946904" flag="0"/>
      <vel value="0.0004905497" flag="0"/>
      <psa03 value="0.0019133811" flag="0"/>
      <psa10 value="0.0005465926" flag="0"/>
      <psa30 value="0.0001055477" flag="0"/>
    </comp>
    <comp name="00.HHZ">
      <acc value="0.0005463391" flag="0"/>
      <vel value="0.0002990149" flag="0"/>
      <psa03 value="0.0017184205" flag="0"/>
      <psa10 value="0.0004823142" flag="0"/>
      <psa30 value="0.0000397371" flag="0"/>
    </comp>
  </station>
  <station code="CHRK" name="CHRK" netid="GO" source="GNSMC" insttype="" commtype="DIG" lat="41.5053" lon="42.4323">
    <comp name="00.HHE">
      <acc value="0.0011383429" flag="0"/>
      <vel value="0.0006628426" flag="0"/>
      <psa03 value="0.0030177332" flag="0"/>
      <psa10 value="0.0008093835" flag="0"/>
      <psa30 value="0.0001975289" flag="0"/>
    </comp>
    <comp name="00.HHZ">
      <acc value="0.0008302181" flag="0"/>
      <vel value="0.0005719862" flag="0"/>
      <psa03 value="0.0023623599" flag="0"/>
      <psa10 value="0.0009389505" flag="0"/>
      <psa30 value="0.0000752174" flag="0"/>
    </comp>
    <comp name="00.HHN">
      <acc value="0.0017399023" flag="0"/>
      <vel value="0.0010692211" flag="0"/>
      <psa03 value="0.0045070908" flag="0"/>
      <psa10 value="0.0010438960" flag="0"/>
      <psa30 value="0.0000946542" flag="0"/>
    </comp>
  </station>
  <station code="CHRN" name="CHRN" netid="GO" source="GNSMC" insttype="" commtype="DIG" lat="42.3324" lon="44.9274">
    <comp name="00.HHE">
      <acc value="2.2085220844" flag="0"/>
      <vel value="0.4786684241" flag="0"/>
      <psa03 value="1.3326172057" flag="0"/>
      <psa10 value="0.0563918443" flag="0"/>
      <psa30 value="0.0056951492" flag="0"/>
    </comp>
    <comp name="00.HHZ">
      <acc value="0.6237115540" flag="0"/>
      <vel value="0.0964343918" flag="0"/>
      <psa03 value="0.2723994078" flag="0"/>
      <psa10 value="0.0162788490" flag="0"/>
      <psa30 value="0.0016859466" flag="0"/>
    </comp>
    <comp name="00.HHN">
      <acc value="2.1083846926" flag="0"/>
      <vel value="0.3257161247" flag="0"/>
      <psa03 value="0.7059401941" flag="0"/>
      <psa10 value="0.0308895405" flag="0"/>
      <psa30 value="0.0033740001" flag="0"/>
    </comp>
  </station>
  <station code="DALI" name="DALI" netid="GO" source="GNSMC" insttype="" commtype="DIG" lat="41.2393" lon="45.8579">
    <comp name="00.HHN">
      <acc value="0.0097954492" flag="0"/>
      <vel value="0.0043940203" flag="0"/>
      <psa03 value="0.0245268262" flag="0"/>
      <psa10 value="0.0027703219" flag="0"/>
      <psa30 value="0.0001780972" flag="0"/>
    </comp>
    <comp name="00.HHZ">
      <acc value="0.0082866914" flag="0"/>
      <vel value="0.0024211300" flag="0"/>
      <psa03 value="0.0104912869" flag="0"/>
      <psa10 value="0.0012437794" flag="0"/>
      <psa30 value="0.0001314240" flag="0"/>
    </comp>
    <comp name="00.HHE">
      <acc value="0.0101316896" flag="0"/>
      <vel value="0.0040712125" flag="0"/>
      <psa03 value="0.0176016593" flag="0"/>
      <psa10 value="0.0030917359" flag="0"/>
      <psa30 value="0.0004380557" flag="0"/>
    </comp>
  </station>
  <station code="DDFN" name="DDFN" netid="GO" source="GNSMC" insttype="CMG-3T" commtype="DIG" lat="41.4733" lon="46.1444">
    <comp name="00.HHE">
      <acc value="0.0023998623" flag="0"/>
      <vel value="0.0018121932" flag="0"/>
      <psa03 value="0.0051302390" flag="0"/>
      <psa10 value="0.0025058583" flag="0"/>
      <psa30 value="0.0004565095" flag="0"/>
    </comp>
    <comp name="00.HHZ">
      <acc value="0.0024919231" flag="0"/>
      <vel value="0.0014289101" flag="0"/>
      <psa03 value="0.0043745023" flag="0"/>
      <psa10 value="0.0023420766" flag="0"/>
      <psa30 value="0.0005173527" flag="0"/>
    </comp>
    <comp name="00.HHN">
      <acc value="0.0025455575" flag="0"/>
      <vel value="0.0021537010" flag="0"/>
      <psa03 value="0.0043958247" flag="0"/>
      <psa10 value="0.0028871551" flag="0"/>
      <psa30 value="0.0006095826" flag="0"/>
    </comp>
  </station>
  <station code="DGRG" name="DGRG" netid="GO" source="GNSMC" insttype="CMG-3ESP" commtype="DIG" lat="41.4507" lon="45.3728">
    <comp name="00.HHN">
      <acc value="0.0042255327" flag="0"/>
      <vel value="0.0014635215" flag="0"/>
      <psa03 value="0.0114509463" flag="0"/>
      <psa10 value="0.0012726026" flag="0"/>
      <psa30 value="0.0003828166" flag="0"/>
    </comp>
    <comp name="00.HHE">
      <acc value="0.0035920499" flag="0"/>
      <vel value="0.0016246969" flag="0"/>
      <psa03 value="0.0087415568" flag="0"/>
      <psa10 value="0.0016908005" flag="0"/>
      <psa30 value="0.0006460836" flag="0"/>
    </comp>
    <comp name="00.HHZ">
      <acc value="0.0081784235" flag="0"/>
      <vel value="0.0016973216" flag="0"/>
      <psa03 value="0.0109880879" flag="0"/>
      <psa10 value="0.0013117289" flag="0"/>
      <psa30 value="0.0001843173" flag="0"/>
    </comp>
  </station>
  <station code="DSHG" name="DSHG" netid="GO" source="GNSMC" insttype="" commtype="DIG" lat="42.0001" lon="44.7181">
    <comp name="00.HHZ">
      <acc value="0.0179502244" flag="0"/>
      <vel value="0.0072952524" flag="0"/>
      <psa03 value="0.0428474770" flag="0"/>
      <psa10 value="0.0066230805" flag="0"/>
      <psa30 value="0.0006415205" flag="0"/>
    </comp>
    <comp name="00.HHN">
      <acc value="0.0415398775" flag="0"/>
      <vel value="0.0161711529" flag="0"/>
      <psa03 value="0.0969979625" flag="0"/>
      <psa10 value="0.0098049470" flag="0"/>
      <psa30 value="0.0005460059" flag="0"/>
    </comp>
    <comp name="00.HHE">
      <acc value="0.0503579463" flag="0"/>
      <vel value="0.0251425215" flag="0"/>
      <psa03 value="0.1775579450" flag="0"/>
      <psa10 value="0.0140785570" flag="0"/>
      <psa30 value="0.0011477485" flag="0"/>
    </comp>
  </station>
