<?xml version="1.0" encoding="UTF-8" standalone="yes"?>
<!DOCTYPE earthquake SYSTEM "stationlist.dtd">
<stationlist created="" xmlns="ch.ethz.sed.shakemap.usgs.xml">
  <station code="SHMT" name="SHMT" netid="A2" insttype="" commtype="DIG" lat="40.9435" lon="44.8045">
    <comp name="00.HHZ">
      <acc value="0.0008601631" flag="0"/>
      <vel value="0.0000929000" flag="0"/>
      <psa03 value="0.0003359707" flag="0"/>
      <psa10 value="0.0000457137" flag="0"/>
      <psa30 value="0.0000043269" flag="0"/>
    </comp>
    <comp name="00.HHN">
      <acc value="0.0007967443" flag="0"/>
      <vel value="0.0001498832" flag="0"/>
      <psa03 value="0.0005122508" flag="0"/>
      <psa10 value="0.0000400477" flag="0"/>
      <psa30 value="0.0000078660" flag="0"/>
    </comp>
    <comp name="00.HHE">
      <acc value="0.0007697630" flag="0"/>
      <vel value="0.0001227339" flag="0"/>
      <psa03 value="0.0004998999" flag="0"/>
      <psa10 value="0.0000227786" flag="0"/>
      <psa30 value="0.0000048373" flag="0"/>
    </comp>
  </station>
  <station code="ZRSH" name="ZRSH" netid="A2" insttype="" commtype="DIG" lat="40.9904" lon="43.6716">
    <comp name="00.HHZ">
      <acc value="0.0041591780" flag="0"/>
      <vel value="0.0006510487" flag="0"/>
      <psa03 value="0.0041426148" flag="0"/>
      <psa10 value="0.0003294104" flag="0"/>
      <psa30 value="0.0000224706" flag="0"/>
    </comp>
    <comp name="00.HHN">
      <acc value="0.0035780203" flag="0"/>
      <vel value="0.0008032044" flag="0"/>
      <psa03 value="0.0038592782" flag="0"/>
      <psa10 value="0.0003358302" flag="0"/>
      <psa30 value="0.0000245026" flag="0"/>
    </comp>
    <comp name="00.HHE">
      <acc value="0.0031857349" flag="0"/>
      <vel value="0.0008235872" flag="0"/>
      <psa03 value="0.0039572165" flag="0"/>
      <psa10 value="0.0003225659" flag="0"/>
      <psa30 value="0.0000360940" flag="0"/>
    </comp>
  </station>
  <station code="AKHN" name="AKHN" netid="GO" source="GNSMC" insttype="CMG-3ESPC" commtype="DIG" lat="41.4283" lon="43.512">
    <comp name="00.HHZ">
      <acc value="0.0042891516" flag="0"/>
      <vel value="0.0006628113" flag="0"/>
      <psa03 value="0.0018124975" flag="0"/>
      <psa10 value="0.0001327370" flag="0"/>
      <psa30 value="0.0000136309" flag="0"/>
    </comp>
    <comp name="00.HHN">
      <acc value="0.0043137611" flag="0"/>
      <vel value="0.0008353356" flag="0"/>
      <psa03 value="0.0040593050" flag="0"/>
      <psa10 value="0.0002382930" flag="0"/>
      <psa30 value="0.0000175037" flag="0"/>
    </comp>
    <comp name="00.HHE">
      <acc value="0.0067942447" flag="0"/>
      <vel value="0.0011421665" flag="0"/>
      <psa03 value="0.0035438650" flag="0"/>
      <psa10 value="0.0002753297" flag="0"/>
      <psa30 value="0.0000240417" flag="0"/>
    </comp>
  </station>
  <station code="AZNN" name="AZNN" netid="GO" source="GNSMC" insttype="" commtype="DIG" lat="41.3468" lon="43.2103">
    <comp name="00.HHE">
      <acc value="0.0009180358" flag="0"/>
      <vel value="0.0003316368" flag="0"/>
      <psa03 value="0.0022965518" flag="0"/>
      <psa10 value="0.0001527111" flag="0"/>
      <psa30 value="0.0000108029" flag="0"/>
    </comp>
    <comp name="00.HHN">
      <acc value="0.0010516082" flag="0"/>
      <vel value="0.0003114278" flag="0"/>
      <psa03 value="0.0011857983" flag="0"/>
      <psa10 value="0.0001541077" flag="0"/>
      <psa30 value="0.0000102514" flag="0"/>
    </comp>
    <comp name="00.HHZ">
      <acc value="0.0010810288" flag="0"/>
      <vel value="0.0002744399" flag="0"/>
      <psa03 value="0.0012583974" flag="0"/>
      <psa10 value="0.0000735879" flag="0"/>
      <psa30 value="0.0000111324" flag="0"/>
    </comp>
  </station>
  <station code="BGD" name="BGD" netid="GO" source="GNSMC" insttype="30s-100Hz," commtype="DIG" lat="41.2645" lon="43.5986">
    <comp name="00.HHE">
      <acc value="2659.4169663174" flag="0"/>
      <vel value="438.4776734087" flag="0"/>
      <psa03 value="1654.7918468021" flag="0"/>
      <psa10 value="108.7172038767" flag="0"/>
      <psa30 value="17.3854129568" flag="0"/>
    </comp>
    <comp name="00.HHN">
      <acc value="1775.9315040813" flag="0"/>
      <vel value="279.9381422726" flag="0"/>
      <psa03 value="845.8253183788" flag="0"/>
      <psa10 value="116.9312713546" flag="0"/>
      <psa30 value="17.2709016187" flag="0"/>
    </comp>
    <comp name="00.HHZ">
      <acc value="1401.7915367743" flag="0"/>
      <vel value="318.4403965308" flag="0"/>
      <psa03 value="767.5573743938" flag="0"/>
      <psa10 value="74.6550154695" flag="0"/>
      <psa30 value="58.7950154837" flag="0"/>
    </comp>
  </station>
  <station code="EMLK" name="EMLK" netid="GO" source="GNSMC" insttype="" commtype="DIG" lat="41.2128" lon="43.9515">
    <comp name="00.HHN">
      <acc value="0.0466925594" flag="0"/>
      <vel value="0.0071107267" flag="0"/>
      <psa03 value="0.0315786039" flag="0"/>
      <psa10 value="0.0025740376" flag="0"/>
      <psa30 value="0.0001778908" flag="0"/>
    </comp>
    <comp name="00.HHZ">
      <acc value="0.0417832238" flag="0"/>
      <vel value="0.0072708649" flag="0"/>
      <psa03 value="0.0259843174" flag="0"/>
      <psa10 value="0.0011102590" flag="0"/>
      <psa30 value="0.0001189726" flag="0"/>
    </comp>
    <comp name="00.HHE">
      <acc value="0.0547278595" flag="0"/>
      <vel value="0.0096555169" flag="0"/>
      <psa03 value="0.0407518990" flag="0"/>
      <psa10 value="0.0019266108" flag="0"/>
      <psa30 value="0.0001815784" flag="0"/>
    </comp>
  </station>
  <station code="MINA" name="MINA" netid="GO" source="GNSMC" insttype="" commtype="DIG" lat="41.596" lon="43.018">
    <comp name="00.HHE">
      <acc value="0.0009549259" flag="0"/>
      <vel value="0.0002090336" flag="0"/>
      <psa03 value="0.0008648914" flag="0"/>
      <psa10 value="0.0000593613" flag="0"/>
      <psa30 value="0.0000073835" flag="0"/>
    </comp>
    <comp name="00.HHZ">
      <acc value="0.0013549327" flag="0"/>
      <vel value="0.0002028779" flag="0"/>
      <psa03 value="0.0004836043" flag="0"/>
      <psa10 value="0.0000258868" flag="0"/>
      <psa30 value="0.0000099920" flag="0"/>
    </comp>
    <comp name="00.HHN">
      <acc value="0.0010032440" flag="0"/>
      <vel value="0.0001880024" flag="0"/>
      <psa03 value="0.0004925659" flag="0"/>
      <psa10 value="0.0000424210" flag="0"/>
      <psa30 value="0.0000062734" flag="0"/>
    </comp>
  </station>
  <station code="EAK" name="EAK" netid="TU" source="smc" insttype="120" commtype="DIG" lat="40.6862" lon="43.6069">
    <comp name="--.HHZ">
      <acc value="0.0009130704" flag="0"/>
      <vel value="0.0001226653" flag="0"/>
      <psa03 value="0.0005657962" flag="0"/>
      <psa10 value="0.0001271566" flag="0"/>
      <psa30 value="0.0000158618" flag="0"/>
    </comp>
    <comp name="--.HHN">
      <acc value="0.0014497642" flag="0"/>
      <vel value="0.0002544945" flag="0"/>
      <psa03 value="0.0017413744" flag="0"/>
      <psa10 value="0.0001098638" flag="0"/>
      <psa30 value="0.0000454156" flag="0"/>
    </comp>
    <comp name="--.HHE">
      <acc value="0.0010808315" flag="0"/>
      <vel value="0.0001996453" flag="0"/>
      <psa03 value="0.0009236720" flag="0"/>
      <psa10 value="0.0001489886" flag="0"/>
      <psa30 value="0.0000355496" flag="0"/>
    </comp>
  </station>
  <station code="GP40" name="GP40" netid="XA" source="GNSMC" insttype="STS-2" commtype="DIG" lat="41.6796" lon="45.4279">
    <comp name="--.HHZ">
      <acc value="0.0006703675" flag="0"/>
      <vel value="0.0000700886" flag="0"/>
      <psa03 value="0.0001937830" flag="0"/>
      <psa10 value="0.0000195185" flag="0"/>
      <psa30 value="0.0000079539" flag="0"/>
    </comp>
    <comp name="--.HHE">
      <acc value="0.0008337018" flag="0"/>
      <vel value="0.0000995350" flag="0"/>
      <psa03 value="0.0003487275" flag="0"/>
      <psa10 value="0.0000181356" flag="0"/>
      <psa30 value="0.0000057511" flag="0"/>
    </comp>
    <comp name="--.HHN">
      <acc value="0.0010982647" flag="0"/>
      <vel value="0.0001171667" flag="0"/>
      <psa03 value="0.0005725490" flag="0"/>
      <psa10 value="0.0000319731" flag="0"/>
      <psa30 value="0.0000055374" flag="0"/>
    </comp>
  </station>
</stationlist>
